start=new Date('2021-11-20T00:00:00.000Z').valueOf();
sats=[{"BSTAR":"0.01426800000000","EPHEMERIS_TYPE":"0","LAUNCH_DATE":"2021-01-24","COUNTRY_CODE":"US","MEAN_ANOMALY":"217.1029","FILE":"3218987","REV_AT_EPOCH":"4560","ARG_OF_PERICENTER":"209.0996","OBJECT_ID":"2021-006J","INCLINATION":"97.4970","TLE_LINE1":"1 47421U 21006J   21323.58334491  .01209477  00000-0  14268-1 0  9997","SITE":"AFETR","CENTER_NAME":"EARTH","TIME_SYSTEM":"UTC","ELEMENT_SET_NO":"999","SEMIMAJOR_AXIS":"6769.068","NORAD_CAT_ID":"47421","MEAN_MOTION_DOT":"0.01209477","RA_OF_ASC_NODE":"23.5746","OBJECT_NAME":"STARLINK-2207","APOAPSIS":"392.349","CLASSIFICATION_TYPE":"U","ECCENTRICITY":"0.00020910","GP_ID":"190047668","PERIOD":"92.375","EPOCH":"2021-11-19T14:00:01.000224","MEAN_MOTION_DDOT":"0.0000000000000","REF_FRAME":"TEME","MEAN_MOTION":"15.58868283","MEAN_ELEMENT_THEORY":"SGP4","OBJECT_TYPE":"PAYLOAD","PERIAPSIS":"389.518","TLE_LINE2":"2 47421  97.4970  23.5746 0002091 209.0996 217.1029 15.58868283 45601","DECAY_DATE":null,"RCS_SIZE":"LARGE"},{"ECCENTRICITY":"0.00020370","GP_ID":"190047425","PERIOD":"93.569","EPOCH":"2021-11-19T14:00:01.000224","MEAN_MOTION_DDOT":"0.0000000000000","MEAN_MOTION":"15.38968834","MEAN_ELEMENT_THEORY":"SGP4","REF_FRAME":"TEME","OBJECT_TYPE":"PAYLOAD","TLE_LINE2":"2 47422  97.4803  23.1036 0002037 206.1479 174.4417 15.38968834 45561","PERIAPSIS":"447.769","DECAY_DATE":null,"RCS_SIZE":"LARGE","BSTAR":"0.02156400000000","EPHEMERIS_TYPE":"0","LAUNCH_DATE":"2021-01-24","COUNTRY_CODE":"US","MEAN_ANOMALY":"174.4417","FILE":"3218987","REV_AT_EPOCH":"4556","ARG_OF_PERICENTER":"206.1479","OBJECT_ID":"2021-006K","INCLINATION":"97.4803","TLE_LINE1":"1 47422U 21006K   21323.58334491  .00905575  00000-0  21564-1 0  9996","SITE":"AFETR","CENTER_NAME":"EARTH","TIME_SYSTEM":"UTC","ELEMENT_SET_NO":"999","SEMIMAJOR_AXIS":"6827.294","NORAD_CAT_ID":"47422","MEAN_MOTION_DOT":"0.00905575","RA_OF_ASC_NODE":"23.1036","OBJECT_NAME":"STARLINK-2208","CLASSIFICATION_TYPE":"U","APOAPSIS":"450.550"},{"OBJECT_NAME":"STARLINK-1782","APOAPSIS":"548.668","CLASSIFICATION_TYPE":"U","MEAN_MOTION_DOT":"-0.00000215","RA_OF_ASC_NODE":"225.1743","NORAD_CAT_ID":"47548","SEMIMAJOR_AXIS":"6925.391","TIME_SYSTEM":"UTC","ELEMENT_SET_NO":"999","CENTER_NAME":"EARTH","INCLINATION":"53.0560","TLE_LINE1":"1 47548U 21009A   21323.45492014 -.00000215  00000-0  44679-5 0  9994","SITE":"AFETR","FILE":"3219209","REV_AT_EPOCH":"4411","ARG_OF_PERICENTER":"64.8175","OBJECT_ID":"2021-009A","BSTAR":"0.00000446790000","EPHEMERIS_TYPE":"0","LAUNCH_DATE":"2021-02-04","MEAN_ANOMALY":"295.3025","COUNTRY_CODE":"US","RCS_SIZE":"LARGE","DECAY_DATE":null,"TLE_LINE2":"2 47548  53.0560 225.1743 0002039  64.8175 295.3025 15.06386171 44112","PERIAPSIS":"545.844","EPOCH":"2021-11-19T10:55:05.100096","MEAN_MOTION_DDOT":"0.0000000000000","MEAN_MOTION":"15.06386171","REF_FRAME":"TEME","MEAN_ELEMENT_THEORY":"SGP4","OBJECT_TYPE":"PAYLOAD","GP_ID":"190075889","PERIOD":"95.593","ECCENTRICITY":"0.00020390"},{"RCS_SIZE":"LARGE","DECAY_DATE":null,"TLE_LINE2":"2 47549  53.0545 225.1802 0001818  64.8928 295.2250 15.06397268 44110","PERIAPSIS":"545.963","REF_FRAME":"TEME","MEAN_MOTION":"15.06397268","MEAN_ELEMENT_THEORY":"SGP4","OBJECT_TYPE":"PAYLOAD","EPOCH":"2021-11-19T10:49:46.094880","MEAN_MOTION_DDOT":"0.0000000000000","PERIOD":"95.592","GP_ID":"190074636","ECCENTRICITY":"0.00018180","CLASSIFICATION_TYPE":"U","APOAPSIS":"548.481","OBJECT_NAME":"STARLINK-1806","MEAN_MOTION_DOT":"0.00000364","RA_OF_ASC_NODE":"225.1802","NORAD_CAT_ID":"47549","SEMIMAJOR_AXIS":"6925.357","TIME_SYSTEM":"UTC","ELEMENT_SET_NO":"999","CENTER_NAME":"EARTH","TLE_LINE1":"1 47549U 21009B   21323.45122795  .00000364  00000-0  43318-4 0  9993","SITE":"AFETR","INCLINATION":"53.0545","ARG_OF_PERICENTER":"64.8928","OBJECT_ID":"2021-009B","FILE":"3219209","REV_AT_EPOCH":"4411","EPHEMERIS_TYPE":"0","BSTAR":"0.00004331800000","LAUNCH_DATE":"2021-02-04","COUNTRY_CODE":"US","MEAN_ANOMALY":"295.2250"},{"REF_FRAME":"TEME","MEAN_MOTION":"15.06391656","MEAN_ELEMENT_THEORY":"SGP4","OBJECT_TYPE":"PAYLOAD","EPOCH":"2021-11-19T09:31:29.235360","MEAN_MOTION_DDOT":"0.0000000000000","PERIOD":"95.593","GP_ID":"190074887","ECCENTRICITY":"0.00019360","RCS_SIZE":"LARGE","DECAY_DATE":null,"TLE_LINE2":"2 47550  53.0563 215.4265 0001936  69.0563 291.0633 15.06391656 44248","PERIAPSIS":"545.898","CENTER_NAME":"EARTH","TLE_LINE1":"1 47550U 21009C   21323.39686615  .00000295  00000-0  38749-4 0  9999","SITE":"AFETR","INCLINATION":"53.0563","ARG_OF_PERICENTER":"69.0563","OBJECT_ID":"2021-009C","FILE":"3219209","REV_AT_EPOCH":"4424","BSTAR":"0.00003874900000","EPHEMERIS_TYPE":"0","COUNTRY_CODE":"US","LAUNCH_DATE":"2021-02-04","MEAN_ANOMALY":"291.0633","APOAPSIS":"548.580","CLASSIFICATION_TYPE":"U","OBJECT_NAME":"STARLINK-1909","MEAN_MOTION_DOT":"0.00000295","RA_OF_ASC_NODE":"215.4265","SEMIMAJOR_AXIS":"6925.374","NORAD_CAT_ID":"47550","TIME_SYSTEM":"UTC","ELEMENT_SET_NO":"999"},{"OBJECT_NAME":"STARLINK-1938","CLASSIFICATION_TYPE":"U","APOAPSIS":"548.544","MEAN_MOTION_DOT":"-0.00001712","RA_OF_ASC_NODE":"235.1456","SEMIMAJOR_AXIS":"6925.379","NORAD_CAT_ID":"47551","TIME_SYSTEM":"UTC","ELEMENT_SET_NO":"999","CENTER_NAME":"EARTH","INCLINATION":"53.0555","TLE_LINE1":"1 47551U 21009D   21323.45768427 -.00001712  00000-0 -96048-4 0  9992","SITE":"AFETR","FILE":"3219209","REV_AT_EPOCH":"4397","ARG_OF_PERICENTER":"68.6443","OBJECT_ID":"2021-009D","BSTAR":"-0.00009604800000","EPHEMERIS_TYPE":"0","MEAN_ANOMALY":"291.4746","LAUNCH_DATE":"2021-02-04","COUNTRY_CODE":"US","RCS_SIZE":"LARGE","DECAY_DATE":null,"PERIAPSIS":"545.945","TLE_LINE2":"2 47551  53.0555 235.1456 0001876  68.6443 291.4746 15.06389934 43970","EPOCH":"2021-11-19T10:59:03.920928","MEAN_MOTION_DDOT":"0.0000000000000","REF_FRAME":"TEME","MEAN_MOTION":"15.06389934","MEAN_ELEMENT_THEORY":"SGP4","OBJECT_TYPE":"PAYLOAD","GP_ID":"190075639","PERIOD":"95.593","ECCENTRICITY":"0.00018760"},{"EPHEMERIS_TYPE":"0","BSTAR":"-0.00001141700000","LAUNCH_DATE":"2021-02-04","COUNTRY_CODE":"US","MEAN_ANOMALY":"292.2530","FILE":"3219209","REV_AT_EPOCH":"4411","ARG_OF_PERICENTER":"67.8670","OBJECT_ID":"2021-009E","INCLINATION":"53.0539","TLE_LINE1":"1 47552U 21009E   21323.46229096 -.00000452  00000-0 -11417-4 0  9995","SITE":"AFETR","CENTER_NAME":"EARTH","TIME_SYSTEM":"UTC","ELEMENT_SET_NO":"999","SEMIMAJOR_AXIS":"6925.388","NORAD_CAT_ID":"47552","MEAN_MOTION_DOT":"-0.00000452","RA_OF_ASC_NODE":"225.1373","OBJECT_NAME":"STARLINK-1940","APOAPSIS":"548.633","CLASSIFICATION_TYPE":"U","ECCENTRICITY":"0.00019930","GP_ID":"190075390","PERIOD":"95.593","EPOCH":"2021-11-19T11:05:41.938944","MEAN_MOTION_DDOT":"0.0000000000000","MEAN_MOTION":"15.06387103","MEAN_ELEMENT_THEORY":"SGP4","REF_FRAME":"TEME","OBJECT_TYPE":"PAYLOAD","PERIAPSIS":"545.873","TLE_LINE2":"2 47552  53.0539 225.1373 0001993  67.8670 292.2530 15.06387103 44116","DECAY_DATE":null,"RCS_SIZE":"LARGE"},{"ECCENTRICITY":"0.00066860","GP_ID":"190074137","PERIOD":"95.592","EPOCH":"2021-11-19T10:44:26.778624","MEAN_MOTION_DDOT":"0.0000000000000","MEAN_ELEMENT_THEORY":"SGP4","MEAN_MOTION":"15.06400150","REF_FRAME":"TEME","OBJECT_TYPE":"PAYLOAD","TLE_LINE2":"2 47553  53.0553 225.2098 0006686 351.6333   8.4543 15.06400150 44111","PERIAPSIS":"542.583","DECAY_DATE":null,"RCS_SIZE":"LARGE","EPHEMERIS_TYPE":"0","BSTAR":"-0.00044661000000","LAUNCH_DATE":"2021-02-04","MEAN_ANOMALY":"8.4543","COUNTRY_CODE":"US","FILE":"3219209","REV_AT_EPOCH":"4411","ARG_OF_PERICENTER":"351.6333","OBJECT_ID":"2021-009F","INCLINATION":"53.0553","TLE_LINE1":"1 47553U 21009F   21323.44753216 -.00006933  00000-0 -44661-3 0  9996","SITE":"AFETR","CENTER_NAME":"EARTH","TIME_SYSTEM":"UTC","ELEMENT_SET_NO":"999","NORAD_CAT_ID":"47553","SEMIMAJOR_AXIS":"6925.348","MEAN_MOTION_DOT":"-0.00006933","RA_OF_ASC_NODE":"225.2098","OBJECT_NAME":"STARLINK-1951","CLASSIFICATION_TYPE":"U","APOAPSIS":"551.843"},{"TLE_LINE1":"1 47554U 21009G   21323.20243515  .00000335  00000-0  41494-4 0  9997","SITE":"AFETR","INCLINATION":"53.0556","CENTER_NAME":"EARTH","BSTAR":"0.00004149400000","EPHEMERIS_TYPE":"0","COUNTRY_CODE":"US","LAUNCH_DATE":"2021-02-04","MEAN_ANOMALY":"277.8266","ARG_OF_PERICENTER":"82.3299","OBJECT_ID":"2021-009G","FILE":"3219209","REV_AT_EPOCH":"4379","MEAN_MOTION_DOT":"0.00000335","RA_OF_ASC_NODE":"246.2936","APOAPSIS":"550.738","CLASSIFICATION_TYPE":"U","OBJECT_NAME":"STARLINK-1953","TIME_SYSTEM":"UTC","ELEMENT_SET_NO":"999","NORAD_CAT_ID":"47554","SEMIMAJOR_AXIS":"6925.359","PERIOD":"95.592","GP_ID":"190074388","MEAN_ELEMENT_THEORY":"SGP4","MEAN_MOTION":"15.06396730","REF_FRAME":"TEME","OBJECT_TYPE":"PAYLOAD","EPOCH":"2021-11-19T04:51:30.396960","MEAN_MOTION_DDOT":"0.0000000000000","ECCENTRICITY":"0.00050740","DECAY_DATE":null,"RCS_SIZE":"LARGE","TLE_LINE2":"2 47554  53.0556 246.2936 0005074  82.3299 277.8266 15.06396730 43793","PERIAPSIS":"543.710"},{"PERIAPSIS":"545.604","TLE_LINE2":"2 47555  53.0534 236.4198 0002357  62.5150 297.6078 15.06392725 43935","DECAY_DATE":null,"RCS_SIZE":"LARGE","ECCENTRICITY":"0.00023570","GP_ID":"190075140","PERIOD":"95.593","MEAN_MOTION_DDOT":"0.0000000000000","EPOCH":"2021-11-19T04:15:40.266432","OBJECT_TYPE":"PAYLOAD","MEAN_ELEMENT_THEORY":"SGP4","MEAN_MOTION":"15.06392725","REF_FRAME":"TEME","ELEMENT_SET_NO":"999","TIME_SYSTEM":"UTC","NORAD_CAT_ID":"47555","SEMIMAJOR_AXIS":"6925.371","RA_OF_ASC_NODE":"236.4198","MEAN_MOTION_DOT":"-0.00000143","OBJECT_NAME":"STARLINK-1954","APOAPSIS":"548.868","CLASSIFICATION_TYPE":"U","MEAN_ANOMALY":"297.6078","LAUNCH_DATE":"2021-02-04","COUNTRY_CODE":"US","EPHEMERIS_TYPE":"0","BSTAR":"0.00000934000000","REV_AT_EPOCH":"4393","FILE":"3219209","OBJECT_ID":"2021-009H","ARG_OF_PERICENTER":"62.5150","INCLINATION":"53.0534","SITE":"AFETR","TLE_LINE1":"1 47555U 21009H   21323.17754938 -.00000143  00000-0  93400-5 0  9993","CENTER_NAME":"EARTH"}];
